IRIDIUM 112             
1 41925U 17003J   24268.63543940  .00000575  00000+0  19839-3 0  9997
2 41925  86.4025 351.8141 0002051  86.4190 273.7240 14.34217792402929
IRIDIUM 111             
1 41926U 17003K   24268.48321967  .00000599  00000+0  20681-3 0  9997
2 41926  86.4027 351.9342 0001918  92.4770 267.6646 14.34219517402859
IRIDIUM 113             
1 42803U 17039A   24268.60272152  .00000489  00000+0  16753-3 0  9999
2 42803  86.3984 225.6234 0002041  82.9642 277.1786 14.34219149380804
IRIDIUM 123             
1 42804U 17039B   24268.50466376  .00000055  00000+0  12554-4 0  9997
2 42804  86.3915 257.1533 0002175  92.2564 267.8880 14.34217772379557
IRIDIUM 120             
1 42805U 17039C   24268.80568412  .00000127  00000+0  38177-4 0  9994
2 42805  86.3975 225.4032 0002369  87.3659 272.7808 14.34216782380828
IRIDIUM 115             
1 42806U 17039D   24268.41594072  .00000990  00000+0  28826-3 0  9990
2 42806  86.4513 225.6047 0001901  79.3850 280.7565 14.43289407383287
IRIDIUM 118             
1 42807U 17039E   24268.67591350  .00000257  00000+0  84620-4 0  9996
2 42807  86.3916 257.0824 0002416  89.3337 270.8136 14.34218841379585
IRIDIUM 117             
1 42808U 17039F   24268.48563427  .00000105  00000+0  30361-4 0  9995
2 42808  86.3914 257.1257 0002098  88.5490 271.5946 14.34218284379579
